{
  "type": "FeatureCollection",
  "features": [
    {
      "type": "Feature",
      "properties": {
        "norad_id": 36036,
        "name": "SMOS",
        "group": "resource",
        "lat": -16.266902844027218,
        "lon": -17.10227394969696,
        "alt_km": 764.4259020846448,
        "timestamp": "2025-12-06T05:40:08.893057+00:00",
        "meta_object_name": "SMOS",
        "meta_object_id": "2009-059A",
        "meta_epoch": "2025-12-05T00:24:22.906656",
        "meta_mean_motion": 14.39791838,
        "meta_eccentricity": 0.0001007,
        "meta_inclination": 98.4384,
        "meta_ra_of_asc_node": 164.1795,
        "meta_arg_of_pericenter": 72.0682,
        "meta_mean_anomaly": 288.0616,
        "meta_ephemeris_type": 0,
        "meta_classification_type": "U",
        "meta_norad_cat_id": 36036,
        "meta_element_set_no": 999,
        "meta_rev_at_epoch": 84551,
        "meta_bstar": 0.00026241046,
        "meta_mean_motion_dot": 7.79e-06,
        "meta_mean_motion_ddot": 0,
        "tle_line1": "1 36036U 09059A   25339.01693179  .00000779  00000+0  26241-3 0  9999",
        "tle_line2": "2 36036  98.4384 164.1795 0001007  72.0682 288.0616 14.39791838845519"
      },
      "geometry": {
        "type": "Point",
        "coordinates": [
          -17.10227394969696,
          -16.266902844027218
        ]
      }
    },
    {
      "type": "Feature",
      "properties": {
        "norad_id": 36110,
        "name": "YAOGAN-7",
        "group": "resource",
        "lat": -32.52000888215092,
        "lon": 36.85187009283113,
        "alt_km": 642.8326511141677,
        "timestamp": "2025-12-06T05:40:08.893068+00:00",
        "meta_object_name": "YAOGAN-7",
        "meta_object_id": "2009-069A",
        "meta_epoch": "2025-12-05T04:19:49.035360",
        "meta_mean_motion": 14.77714891,
        "meta_eccentricity": 0.00236966,
        "meta_inclination": 98.0303,
        "meta_ra_of_asc_node": 220.9642,
        "meta_arg_of_pericenter": 306.8759,
        "meta_mean_anomaly": 53.0279,
        "meta_ephemeris_type": 0,
        "meta_classification_type": "U",
        "meta_norad_cat_id": 36110,
        "meta_element_set_no": 999,
        "meta_rev_at_epoch": 86097,
        "meta_bstar": 0.0001935316,
        "meta_mean_motion_dot": 1.34e-05,
        "meta_mean_motion_ddot": 0,
        "tle_line1": "1 36110U 09069A   25339.18042865  .00001340  00000+0  19353-3 0  9992",
        "tle_line2": "2 36110  98.0303 220.9642 0023696 306.8759  53.0279 14.77714891860970"
      },
      "geometry": {
        "type": "Point",
        "coordinates": [
          36.85187009283113,
          -32.52000888215092
        ]
      }
    },
    {
      "type": "Feature",
      "properties": {
        "norad_id": 36605,
        "name": "TANDEM-X",
        "group": "resource",
        "lat": -30.431943092018468,
        "lon": 161.30660960798755,
        "alt_km": 515.1047996964817,
        "timestamp": "2025-12-06T05:40:08.893078+00:00",
        "meta_object_name": "TANDEM-X",
        "meta_object_id": "2010-030A",
        "meta_epoch": "2025-12-04T14:48:17.883360",
        "meta_mean_motion": 15.19148899,
        "meta_eccentricity": 0.00018635,
        "meta_inclination": 97.4452,
        "meta_ra_of_asc_node": 344.1166,
        "meta_arg_of_pericenter": 95.4078,
        "meta_mean_anomaly": 264.7369,
        "meta_ephemeris_type": 0,
        "meta_classification_type": "U",
        "meta_norad_cat_id": 36605,
        "meta_element_set_no": 999,
        "meta_rev_at_epoch": 85710,
        "meta_bstar": 0.00011882384,
        "meta_mean_motion_dot": 2.429e-05,
        "meta_mean_motion_ddot": 0,
        "tle_line1": "1 36605U 10030A   25338.61687365  .00002429  00000+0  11882-3 0  9996",
        "tle_line2": "2 36605  97.4452 344.1166 0001863  95.4078 264.7369 15.19148899857102"
      },
      "geometry": {
        "type": "Point",
        "coordinates": [
          161.30660960798755,
          -30.431943092018468
        ]
      }
    },
    {
      "type": "Feature",
      "properties": {
        "norad_id": 36795,
        "name": "CARTOSAT-2B",
        "group": "resource",
        "lat": 62.648781949926025,
        "lon": -135.1833657205091,
        "alt_km": 618.5898769545183,
        "timestamp": "2025-12-06T05:40:08.893088+00:00",
        "meta_object_name": "CARTOSAT-2B",
        "meta_object_id": "2010-035A",
        "meta_epoch": "2025-12-05T06:24:38.686752",
        "meta_mean_motion": 14.78771548,
        "meta_eccentricity": 0.0012898,
        "meta_inclination": 97.7864,
        "meta_ra_of_asc_node": 28.5399,
        "meta_arg_of_pericenter": 99.5549,
        "meta_mean_anomaly": 260.712,
        "meta_ephemeris_type": 0,
        "meta_classification_type": "U",
        "meta_norad_cat_id": 36795,
        "meta_element_set_no": 999,
        "meta_rev_at_epoch": 83119,
        "meta_bstar": 0.00021079409,
        "meta_mean_motion_dot": 1.501e-05,
        "meta_mean_motion_ddot": 0,
        "tle_line1": "1 36795U 10035A   25339.26711443  .00001501  00000+0  21079-3 0  9997",
        "tle_line2": "2 36795  97.7864  28.5399 0012898  99.5549 260.7120 14.78771548831190"
      },
      "geometry": {
        "type": "Point",
        "coordinates": [
          -135.1833657205091,
          62.648781949926025
        ]
      }
    },
    {
      "type": "Feature",
      "properties": {
        "norad_id": 36834,
        "name": "YAOGAN-10",
        "group": "resource",
        "lat": 59.239216568213344,
        "lon": -13.410404483838432,
        "alt_km": 608.229956227171,
        "timestamp": "2025-12-06T05:40:08.893099+00:00",
        "meta_object_name": "YAOGAN-10",
        "meta_object_id": "2010-038A",
        "meta_epoch": "2025-12-05T08:25:03.073728",
        "meta_mean_motion": 14.84563889,
        "meta_eccentricity": 0.00015191,
        "meta_inclination": 97.9143,
        "meta_ra_of_asc_node": 359.2271,
        "meta_arg_of_pericenter": 85.3891,
        "meta_mean_anomaly": 285.3275,
        "meta_ephemeris_type": 0,
        "meta_classification_type": "U",
        "meta_norad_cat_id": 36834,
        "meta_element_set_no": 999,
        "meta_rev_at_epoch": 82844,
        "meta_bstar": 0.00039292069,
        "meta_mean_motion_dot": 3.263e-05,
        "meta_mean_motion_ddot": 0,
        "tle_line1": "1 36834U 10038A   25339.35073002  .00003263  00000+0  39292-3 0  9999",
        "tle_line2": "2 36834  97.9143 359.2271 0001519  85.3891 285.3275 14.84563889828442"
      },
      "geometry": {
        "type": "Point",
        "coordinates": [
          -13.410404483838432,
          59.239216568213344
        ]
      }
    },
    {
      "type": "Feature",
      "properties": {
        "norad_id": 37216,
        "name": "COSMO-SKYMED 4",
        "group": "resource",
        "lat": 39.604722323233894,
        "lon": 155.07616940138504,
        "alt_km": 618.7630741232588,
        "timestamp": "2025-12-06T05:40:08.893110+00:00",
        "meta_object_name": "COSMO-SKYMED 4",
        "meta_object_id": "2010-060A",
        "meta_epoch": "2025-12-05T06:48:19.766304",
        "meta_mean_motion": 14.82154316,
        "meta_eccentricity": 0.00013786,
        "meta_inclination": 97.8808,
        "meta_ra_of_asc_node": 160.7192,
        "meta_arg_of_pericenter": 82.9921,
        "meta_mean_anomaly": 277.1449,
        "meta_ephemeris_type": 0,
        "meta_classification_type": "U",
        "meta_norad_cat_id": 37216,
        "meta_element_set_no": 999,
        "meta_rev_at_epoch": 81584,
        "meta_bstar": 0.00014271803,
        "meta_mean_motion_dot": 1.084e-05,
        "meta_mean_motion_ddot": 0,
        "tle_line1": "1 37216U 10060A   25339.28356211  .00001084  00000+0  14272-3 0  9997",
        "tle_line2": "2 37216  97.8808 160.7192 0001378  82.9921 277.1449 14.82154316815842"
      },
      "geometry": {
        "type": "Point",
        "coordinates": [
          155.07616940138504,
          39.604722323233894
        ]
      }
    },
    {
      "type": "Feature",
      "properties": {
        "norad_id": 37387,
        "name": "RESOURCESAT-2",
        "group": "resource",
        "lat": -19.258618006082614,
        "lon": 46.91535840036215,
        "alt_km": 824.0487572211468,
        "timestamp": "2025-12-06T05:40:08.893121+00:00",
        "meta_object_name": "RESOURCESAT-2",
        "meta_object_id": "2011-015A",
        "meta_epoch": "2025-12-05T06:06:42.585984",
        "meta_mean_motion": 14.21592689,
        "meta_eccentricity": 0.00067207,
        "meta_inclination": 98.7887,
        "meta_ra_of_asc_node": 42.8398,
        "meta_arg_of_pericenter": 61.9166,
        "meta_mean_anomaly": 298.269,
        "meta_ephemeris_type": 0,
        "meta_classification_type": "U",
        "meta_norad_cat_id": 37387,
        "meta_element_set_no": 999,
        "meta_rev_at_epoch": 75862,
        "meta_bstar": 0.00017564407,
        "meta_mean_motion_dot": 3.41e-06,
        "meta_mean_motion_ddot": 0,
        "tle_line1": "1 37387U 11015A   25339.25465956  .00000341  00000+0  17564-3 0  9993",
        "tle_line2": "2 37387  98.7887  42.8398 0006720  61.9166 298.2690 14.21592689758626"
      },
      "geometry": {
        "type": "Point",
        "coordinates": [
          46.91535840036215,
          -19.258618006082614
        ]
      }
    }
  ]
}